norad_id,name,regime,epoch,line1,line2,inclination,eccentricity,mean_motion,raan,arg_pericenter,mean_anomaly
25049,SIRIUS 2 (GE-1E),GEO,21322.36854687,1 25049U 97071A   21322.36854687  .00000075  00000-0  00000-0 0    17\,2 25049   9.1997  45.1844 0001117  41.1135 141.0178  0.99403641 87506,9.1997,0.0001117,0.99403641,45.1844,41.1135,141.0178
25049,SIRIUS 2 (GE-1E),GEO,21322.85882700,1 25049U 97071A   21322.85882700  .00000070  00000-0  00000-0 0    13\,2 25049   9.2005  45.1819 0001104  40.3489 317.2364  0.99403884 87501,9.2005,0.0001104,0.99403884,45.1819,40.3489,317.2364
25049,SIRIUS 2 (GE-1E),GEO,21323.36507719,1 25049U 97071A   21323.36507719  .00000064  00000-0  00000-0 0    17\,2 25049   9.2014  45.1793 0001094  38.8116 139.9419  0.99404103 87515,9.2014,0.0001094,0.99404103,45.1793,38.8116,139.9419
25049,SIRIUS 2 (GE-1E),GEO,21323.87479737,1 25049U 97071A   21323.87479737  .00000057  00000-0  00000+0 0  9482\,2 25049   9.2022  45.1767 0001078  37.8212 323.3441  0.99404358 87609,9.2022,0.0001078,0.99404358,45.1767,37.8212,323.3441
25049,SIRIUS 2 (GE-1E),GEO,21325.12937615,1 25049U 97071A   21325.12937615  .00000038  00000-0  00000-0 0    16\,2 25049   9.2043  45.1703 0001058  35.2333  54.9040  0.99404942 87539,9.2043,0.0001058,0.99404942,45.1703,35.2333,54.904
25049,SIRIUS 2 (GE-1E),GEO,21325.89553059,1 25049U 97071A   21325.89553059  .00000025  00000-0  00000+0 0  9492\,2 25049   9.2056  45.1664 0001040  33.6216 330.6995  0.99405321 87627,9.2056,0.000104,0.99405321,45.1664,33.6216,330.6995
25049,SIRIUS 2 (GE-1E),GEO,21326.89975608,1 25049U 97071A   21326.89975608  .00000007  00000-0  00000-0 0    11\,2 25049   9.2072  45.1612 0001021  31.2936 332.4102  0.99405784 87555,9.2072,0.0001021,0.99405784,45.1612,31.2936,332.4102
25049,SIRIUS 2 (GE-1E),GEO,21327.88174308,1 25049U 97071A   21327.88174308 -.00000011  00000-0  00000-0 0    15\,2 25049   9.2088  45.1560 0001003  28.7556 326.3722  0.99406171 87554,9.2088,0.0001003,0.99406171,45.156,28.7556,326.3722
25049,SIRIUS 2 (GE-1E),GEO,21328.87202000,1 25049U 97071A   21328.87202000 -.00000031  00000-0  00000+0 0  9500\,2 25049   9.2105  45.1508 0000984  26.0061 323.5146  0.99406555 87651,9.2105,9.84e-05,0.99406555,45.1508,26.0061,323.5146
25049,SIRIUS 2 (GE-1E),GEO,21329.17566795,1 25049U 97071A   21329.17566795 -.00000037  00000-0  00000-0 0    12\,2 25049   9.2110  45.1492 0000983  25.0018  73.1873  0.99406688 87572,9.211,9.83e-05,0.99406688,45.1492,25.0018,73.1873
25049,SIRIUS 2 (GE-1E),GEO,21330.89979737,1 25049U 97071A   21330.89979737 -.00000071  00000-0  00000-0 0    15\,2 25049   9.2138  45.1402 0000947  19.4449 335.7708  0.99407364 87585,9.2138,9.47e-05,0.99407364,45.1402,19.4449,335.7708
25049,SIRIUS 2 (GE-1E),GEO,21330.92688205,1 25049U 97071A   21330.92688205 -.00000072  00000-0  00000+0 0  9510\,2 25049   9.2139  45.1401 0000947  19.4303 345.4778  0.99407360 87675,9.2139,9.47e-05,0.9940736,45.1401,19.4303,345.4778
25049,SIRIUS 2 (GE-1E),GEO,21331.20052366,1 25049U 97071A   21331.20052366 -.00000077  00000-0  00000-0 0    17\,2 25049   9.2143  45.1386 0000949  18.2236  84.6141  0.99407432 87593,9.2143,9.49e-05,0.99407432,45.1386,18.2236,84.6141
25049,SIRIUS 2 (GE-1E),GEO,21331.88174431,1 25049U 97071A   21331.88174431 -.00000091  00000-0  00000-0 0    15\,2 25049   9.2154  45.1351 0000935  15.7734 330.8573  0.99407621 87592,9.2154,9.35e-05,0.99407621,45.1351,15.7734,330.8573
25049,SIRIUS 2 (GE-1E),GEO,21332.92495719,1 25049U 97071A   21332.92495719 -.00000112  00000-0  00000-0 0    10\,2 25049   9.2171  45.1296 0000930  11.9639 348.0100  0.99407888 87600,9.2171,9.3e-05,0.99407888,45.1296,11.9639,348.01
25049,SIRIUS 2 (GE-1E),GEO,21333.92920204,1 25049U 97071A   21333.92920204 -.00000131  00000-0  00000-0 0    14\,2 25049   9.2187  45.1243 0000930   8.0090 351.3636  0.99408103 87610,9.2187,9.3e-05,0.99408103,45.1243,8.009,351.3636
25049,SIRIUS 2 (GE-1E),GEO,21334.99910497,1 25049U 97071A   21334.99910497 -.00000152  00000-0  00000-0 0    18\,2 25049   9.2204  45.1185 0000940   3.6992  18.5713  0.99408297 87632,9.2204,9.4e-05,0.99408297,45.1185,3.6992,18.5713
25049,SIRIUS 2 (GE-1E),GEO,21336.14096406,1 25049U 97071A   21336.14096406 -.00000173  00000-0  00000-0 0    15\,2 25049   9.2222  45.1122 0000970 358.4822  72.4384  0.99408432 87644,9.2222,9.7e-05,0.99408432,45.1122,358.4822,72.4384
25049,SIRIUS 2 (GE-1E),GEO,21337.97063522,1 25049U 97071A   21337.97063522 -.00000206  00000-0  00000-0 0    17\,2 25049   9.2250  45.1021 0001015 352.8613  12.8615  0.99408421 87665,9.225,0.0001015,0.99408421,45.1021,352.8613,12.8615
25049,SIRIUS 2 (GE-1E),GEO,21338.42271557,1 25049U 97071A   21338.42271557 -.00000214  00000-0  00000-0 0    16\,2 25049   9.2257  45.0995 0001018 352.2624 175.2545  0.99408472 87662,9.2257,0.0001018,0.99408472,45.0995,352.2624,175.2545
25049,SIRIUS 2 (GE-1E),GEO,21339.02165479,1 25049U 97071A   21339.02165479 -.00000223  00000-0  00000-0 0    18\,2 25049   9.2267  45.0961 0001045 350.5959  31.2706  0.99408457 87672,9.2267,0.0001045,0.99408457,45.0961,350.5959,31.2706
25049,SIRIUS 2 (GE-1E),GEO,21340.02579273,1 25049U 97071A   21340.02579273 -.00000238  00000-0  00000-0 0    17\,2 25049   9.2282  45.0904 0001090 348.1348  33.0945  0.99408386 87688,9.2282,0.000109,0.99408386,45.0904,348.1348,33.0945
25049,SIRIUS 2 (GE-1E),GEO,21341.03005581,1 25049U 97071A   21341.03005581 -.00000251  00000-0  00000+0 0  9557\,2 25049   9.2298  45.0847 0001124 346.7826  33.8545  0.99408281 87772,9.2298,0.0001124,0.99408281,45.0847,346.7826,33.8545
25049,SIRIUS 2 (GE-1E),GEO,21341.25695611,1 25049U 97071A   21341.25695611 -.00000253  00000-0  00000-0 0    15\,2 25049   9.2302  45.0834 0001137 345.9922 115.8479  0.99408241 87690,9.2302,0.0001137,0.99408241,45.0834,345.9922,115.8479
25049,SIRIUS 2 (GE-1E),GEO,21342.46465111,1 25049U 97071A   21342.46465111 -.00000264  00000-0  00000-0 0    11\,2 25049   9.2321  45.0766 0001224 343.0290 191.0207  0.99407999 87705,9.2321,0.0001224,0.99407999,45.0766,343.029,191.0207
25049,SIRIUS 2 (GE-1E),GEO,21343.23284795,1 25049U 97071A   21343.23284795 -.00000268  00000-0  00000+0 0  9566\,2 25049   9.2333  45.0723 0001267 342.1196 106.8528  0.99407852 87790,9.2333,0.0001267,0.99407852,45.0723,342.1196,106.8528
25049,SIRIUS 2 (GE-1E),GEO,21343.46882550,1 25049U 97071A   21343.46882550 -.00000269  00000-0  00000-0 0    17\,2 25049   9.2337  45.0710 0001278 341.8893 191.5350  0.99407802 87713,9.2337,0.0001278,0.99407802,45.071,341.8893,191.535
25049,SIRIUS 2 (GE-1E),GEO,21344.24039637,1 25049U 97071A   21344.24039637 -.00000272  00000-0  00000-0 0    18\,2 25049   9.2349  45.0667 0001316 341.3734 108.1792  0.99407600 87720,9.2349,0.0001316,0.994076,45.0667,341.3734,108.1792
25049,SIRIUS 2 (GE-1E),GEO,21345.47723970,1 25049U 97071A   21345.47723970 -.00000272  00000-0  00000+0 0  9573\,2 25049   9.2369  45.0599 0001390 340.3123 191.8789  0.99407245 87819,9.2369,0.000139,0.99407245,45.0599,340.3123,191.8789
25049,SIRIUS 2 (GE-1E),GEO,21346.07643837,1 25049U 97071A   21346.07643837 -.00000271  00000-0  00000-0 0    13\,2 25049   9.2379  45.0566 0001417 340.2175  46.4135  0.99407077 87745,9.2379,0.0001417,0.99407077,45.0566,340.2175,46.4135
25049,SIRIUS 2 (GE-1E),GEO,21347.05512370,1 25049U 97071A   21347.05512370 -.00000267  00000-0  00000-0 0    14\,2 25049   9.2395  45.0515 0001466 339.7355  37.1424  0.99406740 87759,9.2395,0.0001466,0.9940674,45.0515,339.7355,37.1424
25049,SIRIUS 2 (GE-1E),GEO,21347.91539837,1 25049U 97071A   21347.91539837 -.00000263  00000-0  00000-0 0    12\,2 25049   9.2409  45.0469 0001512 339.3859 345.3623  0.99406441 87753,9.2409,0.0001512,0.99406441,45.0469,339.3859,345.3623
25049,SIRIUS 2 (GE-1E),GEO,21348.05935226,1 25049U 97071A   21348.05935226 -.00000262  00000-0  00000+0 0  9589\,2 25049   9.2411  45.0461 0001514 339.2707  36.9945  0.99406385 87848,9.2411,0.0001514,0.99406385,45.0461,339.2707,36.9945
25049,SIRIUS 2 (GE-1E),GEO,21348.48981465,1 25049U 97071A   21348.48981465 -.00000259  00000-0  00000-0 0    18\,2 25049   9.2418  45.0439 0001545 338.9025 191.4137  0.99406232 87765,9.2418,0.0001545,0.99406232,45.0439,338.9025,191.4137
25049,SIRIUS 2 (GE-1E),GEO,21348.99186616,1 25049U 97071A   21348.99186616 -.00000256  00000-0  00000-0 0    16\,2 25049   9.2426  45.0413 0001558 338.9464  11.0403  0.99406046 87763,9.2426,0.0001558,0.99406046,45.0413,338.9464,11.0403
25049,SIRIUS 2 (GE-1E),GEO,21349.87200368,1 25049U 97071A   21349.87200368 -.00000249  00000-0  00000-0 0    17\,2 25049   9.2441  45.0366 0001604 338.6135 326.3489  0.99405702 87776,9.2441,0.0001604,0.99405702,45.0366,338.6135,326.3489
25049,SIRIUS 2 (GE-1E),GEO,21350.06776905,1 25049U 97071A   21350.06776905 -.00000247  00000-0  00000+0 0  9594\,2 25049   9.2444  45.0356 0001607 338.3772  36.6439  0.99405633 87864,9.2444,0.0001607,0.99405633,45.0356,338.3772,36.6439
25049,SIRIUS 2 (GE-1E),GEO,21350.55226475,1 25049U 97071A   21350.55226475 -.00000242  00000-0  00000-0 0    14\,2 25049   9.2452  45.0331 0001639 338.1726 210.2356  0.99405457 87781,9.2452,0.0001639,0.99405457,45.0331,338.1726,210.2356
25049,SIRIUS 2 (GE-1E),GEO,21351.38803406,1 25049U 97071A   21351.38803406 -.00000234  00000-0  00000-0 0    12\,2 25049   9.2465  45.0287 0001671 337.6839 149.8200  0.99405123 87796,9.2465,0.0001671,0.99405123,45.0287,337.6839,149.82
25049,SIRIUS 2 (GE-1E),GEO,21352.15045994,1 25049U 97071A   21352.15045994 -.00000226  00000-0  00000-0 0    19\,2 25049   9.2477  45.0246 0001693 337.3706  62.9820  0.99404845 87803,9.2477,0.0001693,0.99404845,45.0246,337.3706,62.982
25049,SIRIUS 2 (GE-1E),GEO,21353.51073560,1 25049U 97071A   21353.51073560 -.00000211  00000-0  00000-0 0    14\,2 25049   9.2500  45.0174 0001752 336.8444 190.3050  0.99404307 87814,9.25,0.0001752,0.99404307,45.0174,336.8444,190.305
25049,SIRIUS 2 (GE-1E),GEO,21354.43520219,1 25049U 97071A   21354.43520219 -.00000199  00000-0  00000+0 0  9613\,2 25049   9.2515  45.0125 0001791 336.2762 161.7081  0.99403969 87905,9.2515,0.0001791,0.99403969,45.0125,336.2762,161.7081
